{
"type": "FeatureCollection",
"crs": { "type": "name", "properties": { "name": "urn:ogc:def:crs:EPSG::25832" } },
"features": [
{ "type": "Feature", "properties": { "Gletschern": "Gepatsch Ferner", "id": 7022 }, "geometry": { "type": "Polygon", "coordinates": [ [ [ 635695.349301752634346, 5189081.137415870092809, 0.0 ], [ 635696.709788148640655, 5189079.331154588609934, 0.0 ], [ 635689.685217236517929, 5189058.760883302427828, 0.0 ], [ 635681.97836147248745, 5189018.579694622196257, 0.0 ], [ 635667.562643253942952, 5188947.779283087700605, 0.0 ], [ 635651.144869180396199, 5188875.197351199574769, 0.0 ], [ 635646.365452918922529, 5188847.28011613432318, 0.0 ], [ 635644.357842446770519, 5188833.67044124007225, 0.0 ], [ 635645.639717897051014, 5188806.818553025834262, 0.0 ], [ 635656.975206109578721, 5188762.388618332333863, 0.0 ], [ 635666.793813228956424, 5188742.756643070839345, 0.0 ], [ 635692.443414713488892, 5188711.673749600537121, 0.0 ], [ 635738.182099396828562, 5188669.784979970194399, 0.0 ], [ 635771.942903406219557, 5188649.897422912530601, 0.0 ], [ 635811.996928565320559, 5188631.09290484059602, 0.0 ], [ 635870.753480948973447, 5188613.447084163315594, 0.0 ], [ 635927.769198470865376, 5188600.074424085207283, 0.0 ], [ 635974.707441121689044, 5188590.643585846759379, 0.0 ], [ 635975.289267075830139, 5188591.30460846517235, 0.0 ], [ 635995.919882737682201, 5188588.224669555202127, 0.0 ], [ 636006.032340654404834, 5188589.816667476668954, 0.0 ], [ 636013.765795122948475, 5188592.580903170630336, 0.0 ], [ 636020.722261014743708, 5188595.067391536198556, 0.0 ], [ 636008.613772818120196, 5188573.505376873537898, 0.0 ], [ 636001.35769501386676, 5188552.313915284350514, 0.0 ], [ 636000.263671765918843, 5188540.446853105910122, 0.0 ], [ 636009.926577138365246, 5188528.554859023541212, 0.0 ], [ 635999.703567822929472, 5188514.832548942416906, 0.0 ], [ 635987.577397388056852, 5188501.35985214356333, 0.0 ], [ 635978.758415958844125, 5188516.369063922204077, 0.0 ], [ 635980.154174298513681, 5188528.01526509411633, 0.0 ], [ 635971.488325917045586, 5188526.090891467407346, 0.0 ], [ 635966.01126444991678, 5188520.250239473767579, 0.0 ], [ 635964.202976721106097, 5188512.291397337801754, 0.0 ], [ 635952.750594349578023, 5188484.102716027759016, 0.0 ], [ 635930.509245045483112, 5188453.538811230100691, 0.0 ], [ 635931.982978196348995, 5188448.942362430505455, 0.0 ], [ 635925.624975384445861, 5188446.826883089728653, 0.0 ], [ 635908.917950054979883, 5188423.868211182765663, 0.0 ], [ 635896.381034997291863, 5188392.163911511190236, 0.0 ], [ 635889.081978249363601, 5188383.299899597652256, 0.0 ], [ 635901.570817555766553, 5188370.934599309228361, 0.0 ], [ 635911.502610369818285, 5188357.224267365410924, 0.0 ], [ 635909.310820781160146, 5188350.813275468535721, 0.0 ], [ 635915.917048086528666, 5188342.26009461376816, 0.0 ], [ 635925.731088607455604, 5188342.28908677585423, 0.0 ], [ 635928.881417985772714, 5188329.97726915217936, 0.0 ], [ 635945.048968007438816, 5188332.016273813322186, 0.0 ], [ 635947.65850066463463, 5188359.54035799857229, 0.0 ], [ 635954.104896688368171, 5188317.126088187098503, 0.0 ], [ 635955.044085754430853, 5188286.66822431050241, 0.0 ], [ 635954.702235671691597, 5188259.099031751975417, 0.0 ], [ 635949.101773937116377, 5188241.421067429706454, 0.0 ], [ 635942.745451849303208, 5188227.647782032378018, 0.0 ], [ 635930.284103787853383, 5188223.090268264524639, 0.0 ], [ 635927.27523735165596, 5188229.026775289326906, 0.0 ], [ 635924.3174373509828, 5188241.834844474680722, 0.0 ], [ 635909.704742908244953, 5188244.093080694787204, 0.0 ], [ 635914.474912844132632, 5188255.234712288714945, 0.0 ], [ 635918.538615913596004, 5188255.945837460458279, 0.0 ], [ 635924.509394315886311, 5188268.047856359742582, 0.0 ], [ 635923.441991723142564, 5188282.825979676097631, 0.0 ], [ 635918.459131077979691, 5188298.993411700241268, 0.0 ], [ 635911.197265306022018, 5188305.94151546433568, 0.0 ], [ 635911.088899575988762, 5188321.360933450050652, 0.0 ], [ 635919.574066601227969, 5188323.67721102014184, 0.0 ], [ 635924.562643492477946, 5188320.750230123288929, 0.0 ], [ 635927.435785716632381, 5188323.847963232547045, 0.0 ], [ 635911.735168830025941, 5188337.387173132039607, 0.0 ], [ 635901.040448106708936, 5188347.978671733289957, 0.0 ], [ 635895.007145391427912, 5188343.959191925823689, 0.0 ], [ 635883.064926977967843, 5188368.810387722216547, 0.0 ], [ 635876.809554250328802, 5188350.327084292657673, 0.0 ], [ 635874.203709974768572, 5188335.849393210373819, 0.0 ], [ 635887.409184520482086, 5188316.415240154601634, 0.0 ], [ 635902.566255696350709, 5188288.922474448569119, 0.0 ], [ 635908.969713465427049, 5188269.248368172906339, 0.0 ], [ 635903.781527721555904, 5188268.980108736082911, 0.0 ], [ 635887.723512366996147, 5188284.42413292825222, 0.0 ], [ 635881.295082022785209, 5188296.045186245813966, 0.0 ], [ 635881.089359023841098, 5188306.196205250918865, 0.0 ], [ 635868.798510003718548, 5188305.81889936607331, 0.0 ], [ 635866.791254479670897, 5188294.666887008585036, 0.0 ], [ 635866.552577987313271, 5188282.095591204240918, 0.0 ], [ 635871.490784415742382, 5188273.994422723539174, 0.0 ], [ 635880.133129365858622, 5188262.664028467610478, 0.0 ], [ 635885.505523822270334, 5188249.932040182873607, 0.0 ], [ 635885.057050344767049, 5188240.557846223004162, 0.0 ], [ 635882.599971349816769, 5188225.465780992992222, 0.0 ], [ 635896.693766056094319, 5188221.029807044193149, 0.0 ], [ 635893.795670782681555, 5188197.417621911503375, 0.0 ], [ 635899.205784421879798, 5188184.114321849308908, 0.0 ], [ 635907.630601198645309, 5188169.643356006592512, 0.0 ], [ 635912.491045306553133, 5188165.078279814682901, 0.0 ], [ 635916.743804138735868, 5188137.634956549853086, 0.0 ], [ 635916.189032868715003, 5188116.347532190382481, 0.0 ], [ 635929.759354276699014, 5188092.959563337266445, 0.0 ], [ 635940.170202310662717, 5188068.546862941235304, 0.0 ], [ 635955.073479377082549, 5188051.97423367574811, 0.0 ], [ 635955.649872346315533, 5188040.313607997260988, 0.0 ], [ 635943.421504438854754, 5188037.606667171232402, 0.0 ], [ 635945.542019758955576, 5188016.765751882456243, 0.0 ], [ 635938.473332535824738, 5188015.768521964550018, 0.0 ], [ 635933.054474040050991, 5188005.724803265184164, 0.0 ], [ 635928.892328838119283, 5187996.63541089836508, 0.0 ], [ 635923.307547424104996, 5187995.462439488619566, 0.0 ], [ 635909.91441182885319, 5187987.750936596654356, 0.0 ], [ 635899.867363030090928, 5187981.434301495552063, 0.0 ], [ 635886.358208056190051, 5187977.837614003568888, 0.0 ], [ 635883.021193770109676, 5187973.028076959773898, 0.0 ], [ 635875.806212914641947, 5187981.804861639626324, 0.0 ], [ 635871.980541577213444, 5187981.554990427568555, 0.0 ], [ 635862.727115797926672, 5187962.438517529517412, 0.0 ], [ 635868.830797313014045, 5187958.751300184056163, 0.0 ], [ 635880.888923736172728, 5187952.839690424501896, 0.0 ], [ 635872.158908430952579, 5187927.698365624062717, 0.0 ], [ 635864.377369997790083, 5187909.831878306344151, 0.0 ], [ 635856.502588926348835, 5187894.418902048841119, 0.0 ], [ 635846.168857638258487, 5187879.3505127588287, 0.0 ], [ 635834.694388721138239, 5187870.85052359290421, 0.0 ], [ 635818.39667031285353, 5187858.523769705556333, 0.0 ], [ 635803.004013888537884, 5187851.363842377439141, 0.0 ], [ 635786.2256588320015, 5187831.867816967889667, 0.0 ], [ 635780.267284147907048, 5187826.043350239284337, 0.0 ], [ 635781.381657168036327, 5187814.131344594992697, 0.0 ], [ 635786.44682118773926, 5187815.044956030324101, 0.0 ], [ 635801.604814506601542, 5187823.879965234547853, 0.0 ], [ 635803.772392070502974, 5187822.946159766986966, 0.0 ], [ 635795.032808645861223, 5187814.416837248951197, 0.0 ], [ 635783.119837101781741, 5187807.299250723794103, 0.0 ], [ 635775.343477704329416, 5187805.637026532553136, 0.0 ], [ 635765.068836565245874, 5187797.651588564738631, 0.0 ], [ 635758.959482054458931, 5187791.694925901480019, 0.0 ], [ 635756.307788652833551, 5187785.026313593611121, 0.0 ], [ 635749.332354914746247, 5187772.158061246387661, 0.0 ], [ 635752.949897071579471, 5187770.64570626989007, 0.0 ], [ 635767.565298857865855, 5187783.987135773524642, 0.0 ], [ 635781.501097606727853, 5187796.708239478990436, 0.0 ], [ 635796.185823077103123, 5187796.917053765617311, 0.0 ], [ 635801.768743666354567, 5187798.45374558120966, 0.0 ], [ 635798.642585430294275, 5187793.45602697879076, 0.0 ], [ 635785.110729050007649, 5187785.376176344230771, 0.0 ], [ 635773.962968392530456, 5187769.407280217856169, 0.0 ], [ 635770.547703179647215, 5187750.330096953548491, 0.0 ], [ 635760.638000566279516, 5187738.743810980580747, 0.0 ], [ 635752.556467246264219, 5187729.295003928244114, 0.0 ], [ 635738.611677000415511, 5187718.401705170981586, 0.0 ], [ 635731.082927012466826, 5187712.520452770404518, 0.0 ], [ 635714.20254007098265, 5187708.803810215555131, 0.0 ], [ 635720.687451398698613, 5187714.164511756971478, 0.0 ], [ 635728.664807103923522, 5187731.165435564704239, 0.0 ], [ 635732.397532249684446, 5187735.049742802977562, 0.0 ], [ 635733.285201000864618, 5187739.063639494590461, 0.0 ], [ 635730.510495286434889, 5187741.465325307101011, 0.0 ], [ 635720.175952909514308, 5187733.589867861010134, 0.0 ], [ 635713.097250745864585, 5187723.249933662824333, 0.0 ], [ 635705.562611939269118, 5187715.902082432061434, 0.0 ], [ 635697.451374252326787, 5187710.767339441925287, 0.0 ], [ 635686.959220074815676, 5187701.755249913781881, 0.0 ], [ 635676.175585379591212, 5187694.241145714186132, 0.0 ], [ 635668.61918225698173, 5187699.57731868699193, 0.0 ], [ 635663.743175436742604, 5187700.195989735424519, 0.0 ], [ 635662.053213494829834, 5187697.775261055678129, 0.0 ], [ 635649.533014408661984, 5187685.816285657696426, 0.0 ], [ 635652.05812074127607, 5187681.112425525672734, 0.0 ], [ 635640.410649001481943, 5187676.001522589474916, 0.0 ], [ 635640.145807855529711, 5187676.849865428172052, 0.0 ], [ 635612.121527595212683, 5187650.081790246069431, 0.0 ], [ 635611.934713646769524, 5187646.16147889290005, 0.0 ], [ 635608.670377972419374, 5187641.196176905184984, 0.0 ], [ 635604.567341175512411, 5187641.444367119111121, 0.0 ], [ 635599.994211794808507, 5187638.498089730739594, 0.0 ], [ 635599.136582246748731, 5187637.678904043510556, 0.0 ], [ 635599.077419648412615, 5187631.405424046330154, 0.0 ], [ 635592.835899486206472, 5187625.752552065998316, 0.0 ], [ 635590.797731981961988, 5187620.302112410776317, 0.0 ], [ 635588.660466775530949, 5187623.144621374085546, 0.0 ], [ 635581.599635918391868, 5187617.394756104797125, 0.0 ], [ 635588.105106513598002, 5187610.883775194175541, 0.0 ], [ 635578.546945361886173, 5187600.928627251647413, 0.0 ], [ 635574.963795249699615, 5187602.593590104021132, 0.0 ], [ 635556.768651320249774, 5187589.25165892764926, 0.0 ], [ 635552.164855887414888, 5187576.08998164255172, 0.0 ], [ 635545.310869901208207, 5187573.462491670623422, 0.0 ], [ 635548.074194538057782, 5187587.835815064609051, 0.0 ], [ 635546.265333870076574, 5187587.177653888240457, 0.0 ], [ 635544.814849474234506, 5187585.792188854888082, 0.0 ], [ 635544.640685232356191, 5187585.684355585835874, 0.0 ], [ 635542.441945354570635, 5187581.460292736999691, 0.0 ], [ 635541.68778524780646, 5187577.910938423126936, 0.0 ], [ 635530.782516063307412, 5187574.738651278428733, 0.0 ], [ 635517.556931090191938, 5187568.915530720725656, 0.0 ], [ 635495.009213303914294, 5187554.955180327408016, 0.0 ], [ 635435.214462279807776, 5187502.720002949237823, 0.0 ], [ 635428.435827704030089, 5187482.287509790621698, 0.0 ], [ 635423.788715205853805, 5187472.198910754173994, 0.0 ], [ 635419.06348061026074, 5187457.530239923857152, 0.0 ], [ 635414.373758782632649, 5187449.533859573304653, 0.0 ], [ 635406.839192469604313, 5187447.824742006137967, 0.0 ], [ 635408.381610914482735, 5187459.082435191608965, 0.0 ], [ 635405.441166009986773, 5187468.151432053185999, 0.0 ], [ 635384.086134957498871, 5187440.406994677148759, 0.0 ], [ 635379.966331239324063, 5187435.993838804773986, 0.0 ], [ 635364.14998778514564, 5187421.736831008456647, 0.0 ], [ 635367.581979616079479, 5187417.623340621590614, 0.0 ], [ 635383.448582187178545, 5187404.845906587317586, 0.0 ], [ 635374.140108271152712, 5187402.43166293296963, 0.0 ], [ 635368.885980954626575, 5187404.5711639393121, 0.0 ], [ 635354.126331669045612, 5187392.484642312861979, 0.0 ], [ 635347.704263527062722, 5187393.330339673906565, 0.0 ], [ 635341.167765476740897, 5187387.970393911935389, 0.0 ], [ 635343.732366929878481, 5187378.699493988417089, 0.0 ], [ 635339.738427472417243, 5187378.70853391289711, 0.0 ], [ 635331.314724819851108, 5187386.590826324187219, 0.0 ], [ 635330.274189570685849, 5187391.200856255367398, 0.0 ], [ 635315.065394828910939, 5187377.491501941345632, 0.0 ], [ 635316.448320187977515, 5187371.317665124312043, 0.0 ], [ 635315.429396826890297, 5187370.726350295357406, 0.0 ], [ 635308.416574318893254, 5187371.498191277496517, 0.0 ], [ 635308.066487466916442, 5187371.182619636878371, 0.0 ], [ 635311.906686557456851, 5187347.151580749079585, 0.0 ], [ 635300.637877687462606, 5187346.173925943672657, 0.0 ], [ 635301.709152364521287, 5187341.275394110009074, 0.0 ], [ 635292.545523133827373, 5187333.345883885398507, 0.0 ], [ 635282.486088096629828, 5187323.173233168199658, 0.0 ], [ 635273.964052712777629, 5187320.96636466216296, 0.0 ], [ 635269.841810345998965, 5187317.56530724093318, 0.0 ], [ 635247.282045357162133, 5187283.774834359064698, 0.0 ], [ 635203.007916571688838, 5187238.024690516293049, 0.0 ], [ 635169.044482417055406, 5187211.95355065818876, 0.0 ], [ 635158.214103831211105, 5187196.270972327329218, 0.0 ], [ 635109.463848419371061, 5187175.385513811372221, 0.0 ], [ 635108.915661569219083, 5187174.643685482442379, 0.0 ], [ 635108.246334938332438, 5187174.863909870386124, 0.0 ], [ 635077.832719933241606, 5187161.834189074113965, 0.0 ], [ 635076.31189717608504, 5187157.5608473084867, 0.0 ], [ 635068.904739468824118, 5187147.482332395389676, 0.0 ], [ 635065.060103052761406, 5187142.593141597695649, 0.0 ], [ 635057.070491896243766, 5187141.183309406042099, 0.0 ], [ 635049.71958529856056, 5187138.965354105457664, 0.0 ], [ 635034.11992854392156, 5187133.878217745572329, 0.0 ], [ 635018.795976242283359, 5187131.039671860635281, 0.0 ], [ 634998.981203608913347, 5187121.269047167152166, 0.0 ], [ 634982.715710479416884, 5187112.882746422663331, 0.0 ], [ 634968.030082394136116, 5187109.848062369041145, 0.0 ], [ 634955.985692835063674, 5187107.848258461803198, 0.0 ], [ 634939.196463943924755, 5187104.324796236120164, 0.0 ], [ 634930.988836438744329, 5187094.62765028886497, 0.0 ], [ 634920.066016672295518, 5187096.590736439451575, 0.0 ], [ 634893.490922695375048, 5187098.085536654107273, 0.0 ], [ 634887.984055332140997, 5187090.3942506974563, 0.0 ], [ 634861.624834218178876, 5187085.547061521559954, 0.0 ], [ 634845.211223980993964, 5187077.756206115707755, 0.0 ], [ 634837.638140651630238, 5187074.256541039794683, 0.0 ], [ 634832.67672852310352, 5187073.971187042072415, 0.0 ], [ 634812.51881970197428, 5187059.39086468424648, 0.0 ], [ 634722.582047542207874, 5187012.844682157970965, 0.0 ], [ 634719.478625171235763, 5187019.074154968373477, 0.0 ], [ 634674.394880123552866, 5187017.331265644170344, 0.0 ], [ 634626.767466816934757, 5186990.618375429883599, 0.0 ], [ 634526.93648272077553, 5186979.220597983337939, 0.0 ], [ 634488.755292989430018, 5187059.346922506578267, 0.0 ], [ 634434.042393745388836, 5187145.501670541241765, 0.0 ], [ 634344.564365453901701, 5187215.605755943804979, 0.0 ], [ 634270.495411859941669, 5187268.082894583232701, 0.0 ], [ 634197.805380094097927, 5187314.153800363652408, 0.0 ], [ 634128.774170293356292, 5187334.733289511874318, 0.0 ], [ 634080.585298471385613, 5187342.868012839928269, 0.0 ], [ 634043.762377190636471, 5187385.339308641850948, 0.0 ], [ 634003.684852347942069, 5187481.122389007359743, 0.0 ], [ 633987.220288788899779, 5187593.116369289346039, 0.0 ], [ 633978.197650522226468, 5187683.948067549616098, 0.0 ], [ 633965.209998603677377, 5187800.810925064608455, 0.0 ], [ 633943.598714578896761, 5187900.867934693582356, 0.0 ], [ 633921.019366907305084, 5187940.74030005466193, 0.0 ], [ 633892.452175224898383, 5187967.824146708473563, 0.0 ], [ 633852.34946530777961, 5187989.130679346621037, 0.0 ], [ 633800.001405943417922, 5188009.396486003883183, 0.0 ], [ 633776.526455520885065, 5188018.795644371770322, 0.0 ], [ 633701.023887427058071, 5188048.252733389846981, 0.0 ], [ 633609.535951024852693, 5188101.415554117411375, 0.0 ], [ 633556.0136967911385, 5188127.110758436843753, 0.0 ], [ 633544.976129648741335, 5188130.666523868218064, 0.0 ], [ 633454.692219575401396, 5188132.565922524780035, 0.0 ], [ 633407.087385378428735, 5188150.748320871964097, 0.0 ], [ 633349.974616148974746, 5188161.22957839909941, 0.0 ], [ 633309.806895923800766, 5188163.329885981045663, 0.0 ], [ 633251.255600582342595, 5188154.839246957562864, 0.0 ], [ 633176.663901666179299, 5188141.203812766820192, 0.0 ], [ 633132.538550283177756, 5188132.065323093906045, 0.0 ], [ 633063.985815608408302, 5188137.603576220571995, 0.0 ], [ 633007.958905151695944, 5188140.936350494623184, 0.0 ], [ 632933.754964349092916, 5188150.439399106428027, 0.0 ], [ 632901.357438281760551, 5188158.602449192665517, 0.0 ], [ 632874.940361805725843, 5188166.880276141688228, 0.0 ], [ 632829.726244178018533, 5188174.910494018346071, 0.0 ], [ 632790.113950002240017, 5188192.805473490618169, 0.0 ], [ 632777.617442220915109, 5188195.656631972640753, 0.0 ], [ 632773.515478992601857, 5188195.437062999233603, 0.0 ], [ 632764.956277742283419, 5188198.545357838273048, 0.0 ], [ 632756.425034932559356, 5188200.491815536282957, 0.0 ], [ 632750.644880470819771, 5188200.982709944248199, 0.0 ], [ 632711.358904764521867, 5188202.37402234505862, 0.0 ], [ 632705.013457115855999, 5188203.345370101742446, 0.0 ], [ 632685.942603122442961, 5188201.840500816702843, 0.0 ], [ 632658.390206279582344, 5188200.715568563900888, 0.0 ], [ 632640.651550816372037, 5188200.944348599761724, 0.0 ], [ 632605.341562403482385, 5188202.506138097494841, 0.0 ], [ 632582.575939342612401, 5188205.47337503079325, 0.0 ], [ 632557.679381832014769, 5188211.469446782954037, 0.0 ], [ 632524.835087308427319, 5188222.409971449524164, 0.0 ], [ 632477.063445957028307, 5188237.356280851177871, 0.0 ], [ 632423.839295257581398, 5188270.688747396692634, 0.0 ], [ 632355.030136816669255, 5188304.955963342450559, 0.0 ], [ 632308.028130781603977, 5188328.59680084977299, 0.0 ], [ 632265.736765012377873, 5188346.663299180567265, 0.0 ], [ 632220.148902752785943, 5188366.597334277816117, 0.0 ], [ 632185.320436215260997, 5188379.55396815482527, 0.0 ], [ 632162.700205356697552, 5188390.643908788450062, 0.0 ], [ 632138.31968144478742, 5188403.131251869723201, 0.0 ], [ 632108.60036329657305, 5188420.366151821799576, 0.0 ], [ 632070.154402440064587, 5188437.957728169858456, 0.0 ], [ 632036.459030789788812, 5188454.994166445918381, 0.0 ], [ 632001.642128390260041, 5188474.103052728809416, 0.0 ], [ 631978.203118136734702, 5188487.715206906199455, 0.0 ], [ 631953.576846602838486, 5188503.064176867716014, 0.0 ], [ 631932.656528561958112, 5188517.822014024481177, 0.0 ], [ 631910.946762514999136, 5188535.256215997971594, 0.0 ], [ 631890.755001417011954, 5188549.587641171179712, 0.0 ], [ 631864.343399118632078, 5188566.171414421871305, 0.0 ], [ 631836.204120923066512, 5188579.741803829558194, 0.0 ], [ 631808.228445276850834, 5188594.274905156344175, 0.0 ], [ 631776.415024979854934, 5188610.388667393475771, 0.0 ], [ 631756.868023948394693, 5188618.569520469754934, 0.0 ], [ 631730.061303564929403, 5188632.572531475685537, 0.0 ], [ 631698.268386957701296, 5188641.081034208647907, 0.0 ], [ 631684.01863779569976, 5188647.578171356581151, 0.0 ], [ 631652.073458836064674, 5188657.632376175373793, 0.0 ], [ 631593.90819025458768, 5188632.24526319745928, 0.0 ], [ 631582.104236823273823, 5188632.041068337857723, 0.0 ], [ 631555.204493161523715, 5188618.583676385693252, 0.0 ], [ 631513.286184535711072, 5188606.373824682086706, 0.0 ], [ 631440.30602996959351, 5188597.126839814707637, 0.0 ], [ 631343.636558323749341, 5188576.482943898998201, 0.0 ], [ 631272.358823981834576, 5188582.767116784118116, 0.0 ], [ 631247.224362273700535, 5188593.337432349100709, 0.0 ], [ 631216.896833320148289, 5188630.812510730698705, 0.0 ], [ 631178.789608139893971, 5188708.649831518530846, 0.0 ], [ 631168.135480189928785, 5188719.467059510760009, 0.0 ], [ 631144.308373669860885, 5188765.0469093862921, 0.0 ], [ 631125.82751741190441, 5188811.232422954402864, 0.0 ], [ 631097.701436220202595, 5188854.738350038416684, 0.0 ], [ 631057.192467860295437, 5188894.040226017124951, 0.0 ], [ 631002.138120094779879, 5188921.596548879519105, 0.0 ], [ 630949.921142135281116, 5188973.704009531997144, 0.0 ], [ 630894.953372002346441, 5189096.74555257987231, 0.0 ], [ 630884.468889525858685, 5189134.552941594272852, 0.0 ], [ 630862.245665500173345, 5189179.67187447566539, 0.0 ], [ 630859.689747778233141, 5189198.623400510288775, 0.0 ], [ 630853.848018860910088, 5189208.018370755948126, 0.0 ], [ 630840.618740618345328, 5189316.279552549123764, 0.0 ], [ 630844.203140693018213, 5189374.322321287356317, 0.0 ], [ 630856.888047641608864, 5189427.532986701466143, 0.0 ], [ 630850.023174489382654, 5189444.410473455674946, 0.0 ], [ 630848.758110228925943, 5189498.88159107696265, 0.0 ], [ 630853.175252961344086, 5189516.957675335928798, 0.0 ], [ 630878.587635367061011, 5189549.37982183881104, 0.0 ], [ 630943.451909994473681, 5189605.059418560005724, 0.0 ], [ 630986.347062287386507, 5189626.156042343936861, 0.0 ], [ 631001.036772465449758, 5189642.643847113475204, 0.0 ], [ 631023.233959977049381, 5189661.441919223405421, 0.0 ], [ 631051.47817472263705, 5189684.012257522903383, 0.0 ], [ 631079.740900861565024, 5189698.852375812828541, 0.0 ], [ 631096.43492719263304, 5189708.721076532267034, 0.0 ], [ 631110.174604200990871, 5189715.691695698536932, 0.0 ], [ 631123.120097513194196, 5189724.364133634604514, 0.0 ], [ 631149.62693930696696, 5189731.919819138944149, 0.0 ], [ 631166.564754341496155, 5189740.630481150001287, 0.0 ], [ 631184.152192304609343, 5189749.206304794177413, 0.0 ], [ 631217.458099167561159, 5189764.033244287595153, 0.0 ], [ 631242.960395074216649, 5189772.713275478221476, 0.0 ], [ 631268.253090844373219, 5189778.02531351428479, 0.0 ], [ 631276.82986433187034, 5189779.481893837451935, 0.0 ], [ 631311.503428878844716, 5189783.212564520537853, 0.0 ], [ 631332.910062201786786, 5189786.3259336380288, 0.0 ], [ 631367.616489107604139, 5189802.095466360449791, 0.0 ], [ 631381.552769432775676, 5189811.262342712841928, 0.0 ], [ 631404.149107270524837, 5189824.326152941212058, 0.0 ], [ 631407.931120770983398, 5189827.069820034317672, 0.0 ], [ 631406.913277284358628, 5189832.841840785928071, 0.0 ], [ 631413.405595263000578, 5189834.452189030125737, 0.0 ], [ 631433.956911110086367, 5189856.297777692787349, 0.0 ], [ 631464.175641025649384, 5189897.314268443733454, 0.0 ], [ 631471.027130906819366, 5189912.448082057759166, 0.0 ], [ 631477.550309770507738, 5189919.73024469986558, 0.0 ], [ 631478.318516259081662, 5189927.512395693920553, 0.0 ], [ 631488.080687365261838, 5189937.927921077236533, 0.0 ], [ 631491.161291031516157, 5189939.582217570394278, 0.0 ], [ 631503.300543883815408, 5189958.463004657067358, 0.0 ], [ 631521.647773663280532, 5189975.27829154767096, 0.0 ], [ 631534.666726828087121, 5189997.992487121373415, 0.0 ], [ 631576.8159611269366, 5190048.210780777968466, 0.0 ], [ 631597.014606891199946, 5190102.043513068929315, 0.0 ], [ 631605.087581166764721, 5190189.160543721169233, 0.0 ], [ 631600.104558064136654, 5190248.569570590741932, 0.0 ], [ 631605.612501988536678, 5190269.660963433794677, 0.0 ], [ 631607.525095297838561, 5190317.686525860801339, 0.0 ], [ 631589.18093181506265, 5190382.355927262455225, 0.0 ], [ 631557.072392463567667, 5190474.795856446959078, 0.0 ], [ 631523.795208739349619, 5190540.253392385318875, 0.0 ], [ 631524.693662132252939, 5190548.229704106226563, 0.0 ], [ 631517.16851361154113, 5190563.598111562430859, 0.0 ], [ 631486.965696911560372, 5190599.073071229271591, 0.0 ], [ 631446.739719853852876, 5190661.883908117190003, 0.0 ], [ 631413.413678229087964, 5190732.804385218769312, 0.0 ], [ 631392.1422006462235, 5190759.432424631901085, 0.0 ], [ 631386.850787930656224, 5190770.335094382986426, 0.0 ], [ 631390.167199083603919, 5190785.39566305000335, 0.0 ], [ 631388.701989189721644, 5190807.362453354522586, 0.0 ], [ 631401.376932825893164, 5190860.572805601172149, 0.0 ], [ 631422.521055819233879, 5190896.424979778006673, 0.0 ], [ 631429.626782468054444, 5190917.545868587680161, 0.0 ], [ 631443.155388792976737, 5190936.273594066500664, 0.0 ], [ 631457.163073917850852, 5190945.510827560909092, 0.0 ], [ 631467.477157062967308, 5190965.680257951840758, 0.0 ], [ 631472.475402338895947, 5190990.758049809373915, 0.0 ], [ 631469.504142448771745, 5191029.207447925582528, 0.0 ], [ 631438.085422424250282, 5191063.666766633279622, 0.0 ], [ 631414.561226696125232, 5191073.255877486430109, 0.0 ], [ 631389.997464654035866, 5191090.837619975209236, 0.0 ], [ 631368.966702131321654, 5191155.463894333690405, 0.0 ], [ 631380.828628272633068, 5191248.650931341573596, 0.0 ], [ 631376.056854787631892, 5191255.56726342253387, 0.0 ], [ 631358.939118354115635, 5191263.273331042379141, 0.0 ], [ 631353.792735978960991, 5191295.181748803704977, 0.0 ], [ 631376.005588286556304, 5191413.541947272606194, 0.0 ], [ 631389.583343244972639, 5191440.265593398362398, 0.0 ], [ 631418.776475752703846, 5191476.266142529435456, 0.0 ], [ 631539.836182521190494, 5191536.81502578407526, 0.0 ], [ 631658.372736919787712, 5191624.821279023773968, 0.0 ], [ 631721.525204069679603, 5191686.393505215644836, 0.0 ], [ 631763.505208770278841, 5191709.60159754473716, 0.0 ], [ 631826.700587800703943, 5191779.669958996586502, 0.0 ], [ 631856.864264780655503, 5191799.681606972590089, 0.0 ], [ 631875.1341230123071, 5191805.988889659754932, 0.0 ], [ 631894.396425945684314, 5191799.319638133049011, 0.0 ], [ 631895.892367291613482, 5191782.84692320972681, 0.0 ], [ 631853.835950102424249, 5191664.154280921444297, 0.0 ], [ 631850.971580712823197, 5191634.609603218734264, 0.0 ], [ 631835.149531799019314, 5191593.34889574162662, 0.0 ], [ 631832.318036616779864, 5191572.300282076001167, 0.0 ], [ 631834.321482651168481, 5191548.839091511443257, 0.0 ], [ 631844.975777045357972, 5191538.021960380487144, 0.0 ], [ 631875.642814160441048, 5191554.547418795526028, 0.0 ], [ 631892.379839607980102, 5191572.323629408143461, 0.0 ], [ 631915.066866278648376, 5191596.706891174428165, 0.0 ], [ 631936.211087086005136, 5191632.558965127915144, 0.0 ], [ 631961.911267838440835, 5191707.993063070811331, 0.0 ], [ 631972.704476313549094, 5191718.671960096806288, 0.0 ], [ 631971.130946909426711, 5191724.646734249778092, 0.0 ], [ 631983.055497368331999, 5191743.845125286839902, 0.0 ], [ 631996.003204049775377, 5191755.561015965417027, 0.0 ], [ 632017.357513522030786, 5191823.917312119156122, 0.0 ], [ 632081.140408574952744, 5191900.487063580192626, 0.0 ], [ 632119.936437532072887, 5191930.650804238393903, 0.0 ], [ 632165.644585985923186, 5191948.920983941294253, 0.0 ], [ 632294.54602731205523, 5191980.115292300470173, 0.0 ], [ 632324.533988076727837, 5191973.627004837617278, 0.0 ], [ 632351.381191684282385, 5191978.58801123034209, 0.0 ], [ 632374.402156679541804, 5191972.484926366247237, 0.0 ], [ 632398.405688809696585, 5191953.395160128362477, 0.0 ], [ 632406.915493683074601, 5191941.541112018749118, 0.0 ], [ 632408.448310282779858, 5191930.072164357639849, 0.0 ], [ 632395.392361977137625, 5191902.354310316964984, 0.0 ], [ 632392.446709044161253, 5191898.305655082687736, 0.0 ], [ 632368.885303800692782, 5191866.406784560531378, 0.0 ], [ 632326.80693109089043, 5191827.197017526254058, 0.0 ], [ 632296.494258401799016, 5191785.689313774928451, 0.0 ], [ 632275.211168382549658, 5191728.331231982447207, 0.0 ], [ 632279.962340837577358, 5191715.910928922705352, 0.0 ], [ 632301.369168187025934, 5191710.278452275320888, 0.0 ], [ 632368.014959760708734, 5191732.416672820225358, 0.0 ], [ 632412.319150978466496, 5191783.66163382679224, 0.0 ], [ 632434.965681686764583, 5191802.540637882426381, 0.0 ], [ 632448.936448779539205, 5191806.783978229388595, 0.0 ], [ 632473.041876075323671, 5191804.196438341401517, 0.0 ], [ 632501.904772608773783, 5191788.688317297026515, 0.0 ], [ 632519.393437824444845, 5191755.489554051309824, 0.0 ], [ 632524.617244329070672, 5191734.088996509090066, 0.0 ], [ 632523.516613190993667, 5191731.063542411662638, 0.0 ], [ 632530.07307300856337, 5191665.689839986152947, 0.0 ], [ 632528.494264348177239, 5191587.178056627511978, 0.0 ], [ 632562.781217012321576, 5191582.763499196618795, 0.0 ], [ 632630.1624302174896, 5191554.416727912612259, 0.0 ], [ 632676.646469970582984, 5191527.716029293835163, 0.0 ], [ 632709.149747220100835, 5191496.771880177780986, 0.0 ], [ 632775.909075681120157, 5191520.093441655859351, 0.0 ], [ 632766.387192102847621, 5191613.191972208209336, 0.0 ], [ 632772.141143337124959, 5191702.58200622908771, 0.0 ], [ 632775.416095558786765, 5191821.032447456382215, 0.0 ], [ 632792.816170909325592, 5191886.809524272568524, 0.0 ], [ 632829.273123707389459, 5191983.204200090840459, 0.0 ], [ 632840.679988397052512, 5192012.501000706106424, 0.0 ], [ 632856.200578776188195, 5192033.269336638040841, 0.0 ], [ 632861.690128825721331, 5192060.48113433085382, 0.0 ], [ 632871.214607143076137, 5192083.793086219578981, 0.0 ], [ 632889.86848623957485, 5192138.082774827256799, 0.0 ], [ 632901.309112529153936, 5192165.39588996488601, 0.0 ], [ 632909.432322866981849, 5192193.313952448777854, 0.0 ], [ 632909.778354259673506, 5192211.839689833112061, 0.0 ], [ 632912.006764398654923, 5192236.350281775929034, 0.0 ], [ 632915.076520228292793, 5192250.292428125627339, 0.0 ], [ 632897.495736096287146, 5192324.678125522099435, 0.0 ], [ 632861.836159880505875, 5192411.122975642792881, 0.0 ], [ 632418.460414111730643, 5193108.719817451201379, 0.0 ], [ 632322.535946570103988, 5193266.727379739284515, 0.0 ], [ 632262.169533141073771, 5193315.967585567384958, 0.0 ], [ 632222.906054939841852, 5193335.161392189562321, 0.0 ], [ 632239.816706935875118, 5193385.697709598578513, 0.0 ], [ 632231.18387867254205, 5193426.558877657167614, 0.0 ], [ 632205.404096549144015, 5193464.482383586466312, 0.0 ], [ 632151.019456587964669, 5193550.864025630056858, 0.0 ], [ 632133.106872834265232, 5193592.890009438619018, 0.0 ], [ 631978.669946820475161, 5193904.176697938703001, 0.0 ], [ 631952.699112469446845, 5193980.180201586335897, 0.0 ], [ 631969.862334006349556, 5194059.843061335384846, 0.0 ], [ 632016.570066866348498, 5194113.552185870707035, 0.0 ], [ 632068.162264177924953, 5194191.155684937722981, 0.0 ], [ 632071.965721983113326, 5194278.528125650249422, 0.0 ], [ 632136.467196762212552, 5194374.871312368661165, 0.0 ], [ 632200.996347460895777, 5194559.126050617545843, 0.0 ], [ 632223.581015915609896, 5194673.138432960025966, 0.0 ], [ 632271.803576051141135, 5194731.106563768349588, 0.0 ], [ 632337.374506636755541, 5194795.719821206294, 0.0 ], [ 632388.564572429750115, 5194809.700781973078847, 0.0 ], [ 632429.72414046456106, 5194806.026426505297422, 0.0 ], [ 632484.657166891149245, 5194751.393098318018019, 0.0 ], [ 632498.389802643680014, 5194723.042131455615163, 0.0 ], [ 632550.832559895701706, 5194614.774239933118224, 0.0 ], [ 632557.209246935439296, 5194486.844162359833717, 0.0 ], [ 632560.477583306841552, 5194421.273976135067642, 0.0 ], [ 632566.920529562048614, 5194353.654029536060989, 0.0 ], [ 632602.163151084445417, 5194268.399352198466659, 0.0 ], [ 632618.43048099859152, 5194213.320369701832533, 0.0 ], [ 632677.424863838823512, 5194108.717852643691003, 0.0 ], [ 632707.50992987526115, 5194051.024974210187793, 0.0 ], [ 632740.194873932283372, 5193996.022051836363971, 0.0 ], [ 632786.036876549595036, 5193945.211707706563175, 0.0 ], [ 632836.663728411658667, 5193885.305587837472558, 0.0 ], [ 632872.640456500463188, 5193870.044072116725147, 0.0 ], [ 632936.614103935542516, 5193842.030839986167848, 0.0 ], [ 632993.328567803022452, 5193774.208590214140713, 0.0 ], [ 633018.905755817773752, 5193748.187198104336858, 0.0 ], [ 633038.005743472604081, 5193714.118426937609911, 0.0 ], [ 633050.358297626837157, 5193687.871836001984775, 0.0 ], [ 633061.703827772522345, 5193631.425142826512456, 0.0 ], [ 633067.034633399685845, 5193566.960995116271079, 0.0 ], [ 633078.425014461623505, 5193519.532465612515807, 0.0 ], [ 633129.266560267424211, 5193454.784977278672159, 0.0 ], [ 633151.826228219433688, 5193435.061840685084462, 0.0 ], [ 633188.427753211231902, 5193398.645356915891171, 0.0 ], [ 633217.713553241454065, 5193356.812909653410316, 0.0 ], [ 633274.884903612430207, 5193293.231435290537775, 0.0 ], [ 633347.655610275454819, 5193245.789726290851831, 0.0 ], [ 633426.010985108092427, 5193212.200708475895226, 0.0 ], [ 633545.221959550864995, 5193203.118593715131283, 0.0 ], [ 633629.70903402287513, 5193182.333301079459488, 0.0 ], [ 633660.023368496098556, 5193173.324951912276447, 0.0 ], [ 633710.914123990689404, 5193167.84179187938571, 0.0 ], [ 633818.476047555683181, 5193190.309690089896321, 0.0 ], [ 633870.683571061934344, 5193200.723143000155687, 0.0 ], [ 633932.845196664333344, 5193185.907375410199165, 0.0 ], [ 633989.886385631980374, 5193143.141190509311855, 0.0 ], [ 634039.252557807951234, 5193182.95691257994622, 0.0 ], [ 634082.127497964305803, 5193182.099523275159299, 0.0 ], [ 634158.490735411294736, 5193172.287815822288394, 0.0 ], [ 634320.495829611551017, 5193167.109164757654071, 0.0 ], [ 634395.272150908713229, 5193157.270427769050002, 0.0 ], [ 634492.132577241631225, 5193135.421387685462832, 0.0 ], [ 634524.2717037985567, 5193129.469097476452589, 0.0 ], [ 634597.063379238592461, 5193106.220633016899228, 0.0 ], [ 634629.010553349973634, 5193084.565443393774331, 0.0 ], [ 634594.787738733924925, 5193053.687705310992897, 0.0 ], [ 634567.334957241080701, 5193045.227482887916267, 0.0 ], [ 634535.627232815837488, 5193044.680700842291117, 0.0 ], [ 634523.038464471348561, 5193023.473073886707425, 0.0 ], [ 634525.351930371602066, 5193017.390981855802238, 0.0 ], [ 634538.383368303999305, 5193015.967723517678678, 0.0 ], [ 634553.829130418249406, 5193011.296958365477622, 0.0 ], [ 634571.740840698825195, 5192999.983540055342019, 0.0 ], [ 634583.105895338114351, 5192996.42222889047116, 0.0 ], [ 634598.116534994449466, 5192994.460924880579114, 0.0 ], [ 634612.461582099786028, 5192986.662578538991511, 0.0 ], [ 634624.456774079473689, 5192983.620988701470196, 0.0 ], [ 634632.889003607677296, 5192976.650908382609487, 0.0 ], [ 634637.994102076161653, 5192967.292317758314312, 0.0 ], [ 634653.818135484354571, 5192964.130930420011282, 0.0 ], [ 634656.397803235333413, 5192957.205927458591759, 0.0 ], [ 634675.610144235659391, 5192951.083814275451005, 0.0 ], [ 634700.976303842384368, 5192951.523199678398669, 0.0 ], [ 634749.523910532472655, 5192968.846362658776343, 0.0 ], [ 634763.844724787399173, 5192971.482623430900276, 0.0 ], [ 634777.350705234101042, 5192956.317011306993663, 0.0 ], [ 634872.380871666129678, 5192808.965905703604221, 0.0 ], [ 634922.808750628028065, 5192730.837753656320274, 0.0 ], [ 634942.887035183375701, 5192710.629680902697146, 0.0 ], [ 634943.86330841423478, 5192710.249343507923186, 0.0 ], [ 634954.76704730745405, 5192699.073573933914304, 0.0 ], [ 634964.468501014169306, 5192693.968018800020218, 0.0 ], [ 634978.168912401539274, 5192688.617538958787918, 0.0 ], [ 634999.825020067160949, 5192684.02549605909735, 0.0 ], [ 635013.980297383852303, 5192664.468506221659482, 0.0 ], [ 635013.992553391377442, 5192658.11002504080534, 0.0 ], [ 635026.295498164370656, 5192654.729675775393844, 0.0 ], [ 635025.183991380268708, 5192646.363160552456975, 0.0 ], [ 635024.761040949844755, 5192643.955090628936887, 0.0 ], [ 635029.720709291170351, 5192634.85498090647161, 0.0 ], [ 635035.485304621513933, 5192632.806232796050608, 0.0 ], [ 635040.47353388404008, 5192632.896165394224226, 0.0 ], [ 635053.175390908494592, 5192626.28976318333298, 0.0 ], [ 635063.304530350374989, 5192612.801903752610087, 0.0 ], [ 635078.022809874499217, 5192604.930911946110427, 0.0 ], [ 635080.784959990996867, 5192594.165457257069647, 0.0 ], [ 635087.010078009217978, 5192579.5151879908517, 0.0 ], [ 635097.278829366667196, 5192558.886052627116442, 0.0 ], [ 635104.049250846961513, 5192562.600142945535481, 0.0 ], [ 635120.653830827679485, 5192547.48161037825048, 0.0 ], [ 635130.821775925927795, 5192531.950490429997444, 0.0 ], [ 635146.564241162035614, 5192519.131170182488859, 0.0 ], [ 635155.469015813199803, 5192509.898238926194608, 0.0 ], [ 635175.899430810008198, 5192505.820300960913301, 0.0 ], [ 635192.364645160268992, 5192495.77313481643796, 0.0 ], [ 635193.386496604885906, 5192487.263958828523755, 0.0 ], [ 635196.795923495083116, 5192463.795168722048402, 0.0 ], [ 635199.492114037508145, 5192457.562558962032199, 0.0 ], [ 635204.837073044967838, 5192453.365475245751441, 0.0 ], [ 635215.915215649176389, 5192455.382101257331669, 0.0 ], [ 635237.965318258851767, 5192449.496826078742743, 0.0 ], [ 635249.479030616115779, 5192444.429110501892865, 0.0 ], [ 635249.986074658227153, 5192431.680374560877681, 0.0 ], [ 635253.440375705133192, 5192418.143850473687053, 0.0 ], [ 635258.101879150024615, 5192409.642647088505328, 0.0 ], [ 635269.096382460440509, 5192405.117056126706302, 0.0 ], [ 635282.869333155802451, 5192390.690256462432444, 0.0 ], [ 635293.376986204297282, 5192377.347825002856553, 0.0 ], [ 635302.483669162262231, 5192351.908124637790024, 0.0 ], [ 635306.911971925524995, 5192339.602132806554437, 0.0 ], [ 635312.008951850933954, 5192333.092492992989719, 0.0 ], [ 635322.884019742137752, 5192320.234031872823834, 0.0 ], [ 635329.359406358329579, 5192314.640129937790334, 0.0 ], [ 635339.27313694707118, 5192321.5849823448807, 0.0 ], [ 635341.69436567730736, 5192326.673958730883896, 0.0 ], [ 635351.866233625682071, 5192326.183160935528576, 0.0 ], [ 635357.526281500351615, 5192310.951286557130516, 0.0 ], [ 635373.644782781484537, 5192304.591020347550511, 0.0 ], [ 635387.105885284952819, 5192297.320569968782365, 0.0 ], [ 635396.415317001985386, 5192272.718279254622757, 0.0 ], [ 635401.888074743212201, 5192253.040414791554213, 0.0 ], [ 635403.199086688226089, 5192233.76967666298151, 0.0 ], [ 635403.502275930717587, 5192231.047489604912698, 0.0 ], [ 635428.886957049253397, 5192210.560734047554433, 0.0 ], [ 635441.1146640292136, 5192193.778279544785619, 0.0 ], [ 635476.524033316411078, 5192155.00459471065551, 0.0 ], [ 635482.605923376977444, 5192156.549394845031202, 0.0 ], [ 635493.23437437042594, 5192150.030668870545924, 0.0 ], [ 635492.456915220827796, 5192132.331848250702024, 0.0 ], [ 635510.774147179094143, 5192103.475372276268899, 0.0 ], [ 635521.874744203756563, 5192094.255287389270961, 0.0 ], [ 635539.999171271454543, 5192097.517398399300873, 0.0 ], [ 635562.855517331743613, 5192104.243199846707284, 0.0 ], [ 635568.372432045987807, 5192098.652424844913185, 0.0 ], [ 635566.821108715725131, 5192081.290837868116796, 0.0 ], [ 635546.749107061652467, 5192069.260601623915136, 0.0 ], [ 635565.999785544117913, 5192017.929858789779246, 0.0 ], [ 635587.944852313492447, 5191929.817400860600173, 0.0 ], [ 635626.936273418366909, 5191823.009742106311023, 0.0 ], [ 635630.515264618443325, 5191796.565400240011513, 0.0 ], [ 635624.401443293085322, 5191762.467888040468097, 0.0 ], [ 635600.483820825815201, 5191713.573635127395391, 0.0 ], [ 635600.145404543727636, 5191712.497583132237196, 0.0 ], [ 635595.550800494384021, 5191665.356164707802236, 0.0 ], [ 635590.037278654403053, 5191632.801883469335735, 0.0 ], [ 635579.205826380173676, 5191594.912347979843616, 0.0 ], [ 635569.039446601178497, 5191552.669326890259981, 0.0 ], [ 635565.982298096059822, 5191524.550659068860114, 0.0 ], [ 635564.420241776038893, 5191511.758342992514372, 0.0 ], [ 635567.833649853477255, 5191475.05455472227186, 0.0 ], [ 635576.406968285213225, 5191459.389165763743222, 0.0 ], [ 635592.896042464533821, 5191463.455786977894604, 0.0 ], [ 635624.560746827279218, 5191466.554695567116141, 0.0 ], [ 635637.848513792618178, 5191469.352633944712579, 0.0 ], [ 635638.58122431312222, 5191469.762084782123566, 0.0 ], [ 635692.644603506661952, 5191536.175146309658885, 0.0 ], [ 635720.3146357673686, 5191586.135799939744174, 0.0 ], [ 635750.464388558524661, 5191685.139877029694617, 0.0 ], [ 635768.781544331926852, 5191781.428076016716659, 0.0 ], [ 635818.934833744657226, 5191907.764079982414842, 0.0 ], [ 635845.248188861063682, 5191995.703893597237766, 0.0 ], [ 635863.147827101871371, 5192027.503278126940131, 0.0 ], [ 635895.884168085060082, 5192113.049617293290794, 0.0 ], [ 635904.449362921761349, 5192193.678431169129908, 0.0 ], [ 635902.051212846767157, 5192236.628303651697934, 0.0 ], [ 635892.58976796339266, 5192266.963669084012508, 0.0 ], [ 635897.068674662034027, 5192296.037846969440579, 0.0 ], [ 635887.644299080595374, 5192331.367031800560653, 0.0 ], [ 635884.343605264090002, 5192400.803800456225872, 0.0 ], [ 635906.208820066298358, 5192465.16343208681792, 0.0 ], [ 635923.604999436531216, 5192500.459020704030991, 0.0 ], [ 635954.442725421162322, 5192543.973760630004108, 0.0 ], [ 635992.932971529313363, 5192579.796442491002381, 0.0 ], [ 635989.062084141070955, 5192581.928693972527981, 0.0 ], [ 635980.56368802767247, 5192583.502915031276643, 0.0 ], [ 635979.85081383981742, 5192589.312507200054824, 0.0 ], [ 635983.784065503394231, 5192588.287530262023211, 0.0 ], [ 635985.036586306989193, 5192602.995151726529002, 0.0 ], [ 635987.078067978611216, 5192616.059286719188094, 0.0 ], [ 635989.970083689084277, 5192623.802153235301375, 0.0 ], [ 635992.401811411138624, 5192629.685284646227956, 0.0 ], [ 635992.530339324497618, 5192643.807807839475572, 0.0 ], [ 635997.399423915427178, 5192650.837365440092981, 0.0 ], [ 636002.874304631259292, 5192659.167193254455924, 0.0 ], [ 636011.394390798872337, 5192665.423959670588374, 0.0 ], [ 636011.998552794801071, 5192673.400884460657835, 0.0 ], [ 636019.63586086127907, 5192677.119734577834606, 0.0 ], [ 636026.88389509706758, 5192682.265896491706371, 0.0 ], [ 636036.844212123309262, 5192687.212242436595261, 0.0 ], [ 636048.979991783504374, 5192686.074935315176845, 0.0 ], [ 636060.221013389294967, 5192684.104427432641387, 0.0 ], [ 636065.534386416547932, 5192675.140309326350689, 0.0 ], [ 636077.884174710372463, 5192671.946742638014257, 0.0 ], [ 636084.133558799512684, 5192677.838873053900898, 0.0 ], [ 636083.666995675652288, 5192693.672168981283903, 0.0 ], [ 636101.899969563120976, 5192688.102877261117101, 0.0 ], [ 636104.133045185706578, 5192684.216090093366802, 0.0 ], [ 636103.988559079356492, 5192668.621360584162176, 0.0 ], [ 636111.611293186200783, 5192661.275506934151053, 0.0 ], [ 636119.678070307592861, 5192663.55574918165803, 0.0 ], [ 636122.956469950964674, 5192665.403483601287007, 0.0 ], [ 636139.848606510553509, 5192655.657544889487326, 0.0 ], [ 636144.370470553985797, 5192662.05424465239048, 0.0 ], [ 636151.403016747673973, 5192660.770029840990901, 0.0 ], [ 636149.755965833319351, 5192652.085401175543666, 0.0 ], [ 636152.087266060523689, 5192641.077621482312679, 0.0 ], [ 636157.832321683759801, 5192640.177483825013041, 0.0 ], [ 636160.194299472379498, 5192636.002894738689065, 0.0 ], [ 636158.633738980279304, 5192623.00093331746757, 0.0 ], [ 636162.39157301816158, 5192616.599226804450154, 0.0 ], [ 636171.757576850824989, 5192605.061233213171363, 0.0 ], [ 636174.504861720837653, 5192594.52350019197911, 0.0 ], [ 636181.598477662191726, 5192593.704313205555081, 0.0 ], [ 636176.388417473295704, 5192585.147025625221431, 0.0 ], [ 636178.995561300311238, 5192572.444991540163755, 0.0 ], [ 636184.373304040520452, 5192564.692925097420812, 0.0 ], [ 636190.303005043882877, 5192558.703177517279983, 0.0 ], [ 636200.077194172190502, 5192554.494800087064505, 0.0 ], [ 636202.710866648005322, 5192547.341977866366506, 0.0 ], [ 636199.379019111744128, 5192544.992358501069248, 0.0 ], [ 636200.238892622524872, 5192541.23817387688905, 0.0 ], [ 636205.485804904485121, 5192530.246021274477243, 0.0 ], [ 636204.387574889115058, 5192514.229071495123208, 0.0 ], [ 636212.273826716467738, 5192510.902499621734023, 0.0 ], [ 636212.894015418598428, 5192504.547354378737509, 0.0 ], [ 636224.085829227929935, 5192490.724571999162436, 0.0 ], [ 636218.516110772150569, 5192486.553939867764711, 0.0 ], [ 636220.648519672453403, 5192481.120499306358397, 0.0 ], [ 636225.917500020819716, 5192481.106203082948923, 0.0 ], [ 636232.7905230645556, 5192483.377113713882864, 0.0 ], [ 636240.655848334310576, 5192484.156986808404326, 0.0 ], [ 636243.055156528251246, 5192487.305701061151922, 0.0 ], [ 636245.942728554364294, 5192486.088925818912685, 0.0 ], [ 636243.923188102897257, 5192481.310762273147702, 0.0 ], [ 636245.427604077383876, 5192474.644712818786502, 0.0 ], [ 636239.122520349686965, 5192468.558626500889659, 0.0 ], [ 636233.638013129238971, 5192466.783326124772429, 0.0 ], [ 636230.219762318534777, 5192462.16734332870692, 0.0 ], [ 636234.059417728800327, 5192452.956133663654327, 0.0 ], [ 636230.614081632578745, 5192452.221521417610347, 0.0 ], [ 636231.341294703539461, 5192448.154076712206006, 0.0 ], [ 636239.948887351434678, 5192442.104930753819644, 0.0 ], [ 636245.963032441795804, 5192450.595925292000175, 0.0 ], [ 636254.284507739823312, 5192457.300293946638703, 0.0 ], [ 636262.582845659111626, 5192455.612670624628663, 0.0 ], [ 636262.227710246806964, 5192449.74788554571569, 0.0 ], [ 636258.965252725291066, 5192441.794723724015057, 0.0 ], [ 636253.127383713261224, 5192433.052735037170351, 0.0 ], [ 636254.096779872779734, 5192427.858493345789611, 0.0 ], [ 636250.572590333875269, 5192421.47775587067008, 0.0 ], [ 636253.058564195060171, 5192417.655291861854494, 0.0 ], [ 636258.390961865778081, 5192419.026004030369222, 0.0 ], [ 636265.938328799558803, 5192404.182215410284698, 0.0 ], [ 636261.454600298195146, 5192401.653987872414291, 0.0 ], [ 636262.295382851385511, 5192396.965527314692736, 0.0 ], [ 636266.718330016708933, 5192393.549998850561678, 0.0 ], [ 636267.164274189155549, 5192383.625035951845348, 0.0 ], [ 636271.385447952081449, 5192382.60395325999707, 0.0 ], [ 636276.041797091602348, 5192378.930402925238013, 0.0 ], [ 636282.077933533466421, 5192379.963137480430305, 0.0 ], [ 636288.618990987539291, 5192378.649563752114773, 0.0 ], [ 636298.468563656555489, 5192368.72171790804714, 0.0 ], [ 636312.490060084266588, 5192365.775580650195479, 0.0 ], [ 636324.899177432758734, 5192348.17268939036876, 0.0 ], [ 636328.08515135908965, 5192328.489858223125339, 0.0 ], [ 636337.279341144254431, 5192307.77835679333657, 0.0 ], [ 636338.046344888396561, 5192287.865353175438941, 0.0 ], [ 636336.907963313162327, 5192278.023427432402968, 0.0 ], [ 636330.860576305538416, 5192274.004462177865207, 0.0 ], [ 636354.231169769424014, 5192253.842390866018832, 0.0 ], [ 636374.193348764558323, 5192243.538267575204372, 0.0 ], [ 636378.672291151131503, 5192253.455631212331355, 0.0 ], [ 636378.979472479200922, 5192267.540203666314483, 0.0 ], [ 636376.18264104728587, 5192278.34508653357625, 0.0 ], [ 636378.019769872189499, 5192282.914150790311396, 0.0 ], [ 636387.563552059815265, 5192287.658419973216951, 0.0 ], [ 636398.692988687427714, 5192285.370998202823102, 0.0 ], [ 636409.358260141219944, 5192270.171289985068142, 0.0 ], [ 636416.8575740957167, 5192261.675377113744617, 0.0 ], [ 636424.188172120833769, 5192265.2030074223876, 0.0 ], [ 636429.897442843066528, 5192258.299529789946973, 0.0 ], [ 636421.272538943216205, 5192258.551676920615137, 0.0 ], [ 636414.183025591308251, 5192257.309045387431979, 0.0 ], [ 636409.777606172370724, 5192246.244537921622396, 0.0 ], [ 636405.592258257325739, 5192236.702724483795464, 0.0 ], [ 636402.299593102070503, 5192229.030320892110467, 0.0 ], [ 636415.159376561176032, 5192222.392327480949461, 0.0 ], [ 636417.883502871729434, 5192219.455629631876945, 0.0 ], [ 636427.817066921270452, 5192230.192419866099954, 0.0 ], [ 636434.189813912496902, 5192229.425940097309649, 0.0 ], [ 636435.184400142752565, 5192235.262617958709598, 0.0 ], [ 636433.743967237882316, 5192241.928794524632394, 0.0 ], [ 636433.264254412497394, 5192249.373274086043239, 0.0 ], [ 636441.023445860599168, 5192260.852837840095162, 0.0 ], [ 636450.598808570182882, 5192239.190872273407876, 0.0 ], [ 636451.529918785323389, 5192232.486033471301198, 0.0 ], [ 636439.895380217232741, 5192227.145212813280523, 0.0 ], [ 636436.629835421685129, 5192221.018892018124461, 0.0 ], [ 636435.402554557076655, 5192212.757374905049801, 0.0 ], [ 636441.86042547877878, 5192208.57652913313359, 0.0 ], [ 636450.488608382642269, 5192210.95130888838321, 0.0 ], [ 636459.563879033317789, 5192215.316617919132113, 0.0 ], [ 636462.208840891020373, 5192209.319926207885146, 0.0 ], [ 636461.94211980921682, 5192203.371656525880098, 0.0 ], [ 636453.760223007877357, 5192197.514629269018769, 0.0 ], [ 636450.048176236217842, 5192192.710665163584054, 0.0 ], [ 636448.939236584701575, 5192189.631320309825242, 0.0 ], [ 636452.238402211805806, 5192187.131378625519574, 0.0 ], [ 636456.550955370534211, 5192190.064487592317164, 0.0 ], [ 636462.277527783648111, 5192197.707633486017585, 0.0 ], [ 636469.799274764372967, 5192201.520513053052127, 0.0 ], [ 636470.41949052340351, 5192188.055699062533677, 0.0 ], [ 636473.815842308453284, 5192171.697278597392142, 0.0 ], [ 636473.377116764429957, 5192171.113523738458753, 0.0 ], [ 636493.025836110231467, 5192156.224711107090116, 0.0 ], [ 636516.995093891746365, 5192127.787126746028662, 0.0 ], [ 636516.708906412939541, 5192128.992536660283804, 0.0 ], [ 636514.809850533027202, 5192141.276620934717357, 0.0 ], [ 636520.092120052780956, 5192144.712391644716263, 0.0 ], [ 636525.809792785672471, 5192154.87727165594697, 0.0 ], [ 636528.760563171468675, 5192154.882520493119955, 0.0 ], [ 636540.378349414095283, 5192166.553768452256918, 0.0 ], [ 636544.527450729627162, 5192161.777623683214188, 0.0 ], [ 636537.921549633727409, 5192158.265327041037381, 0.0 ], [ 636532.919765207683668, 5192146.224732559174299, 0.0 ], [ 636539.504325026879087, 5192143.413952355273068, 0.0 ], [ 636547.757384671480395, 5192150.965113341808319, 0.0 ], [ 636553.38599011732731, 5192146.920140898786485, 0.0 ], [ 636551.846147599862888, 5192138.457315928302705, 0.0 ], [ 636553.89916175766848, 5192128.993703968822956, 0.0 ], [ 636563.629550461191684, 5192119.076821454800665, 0.0 ], [ 636569.092819525627419, 5192101.01467103138566, 0.0 ], [ 636571.033582952804863, 5192094.912981798872352, 0.0 ], [ 636579.716616830206476, 5192087.723171885125339, 0.0 ], [ 636584.961576872854494, 5192061.984630825929344, 0.0 ], [ 636579.085605005035177, 5192037.328731787391007, 0.0 ], [ 636566.690118491416797, 5192029.872040114365518, 0.0 ], [ 636566.408407193608582, 5192028.519119471311569, 0.0 ], [ 636570.906480508274399, 5192011.083532379940152, 0.0 ], [ 636569.555386431864463, 5191977.168982855975628, 0.0 ], [ 636571.152283927425742, 5191973.051638933829963, 0.0 ], [ 636569.113183443434536, 5191962.048773501068354, 0.0 ], [ 636579.671842669020407, 5191873.256500883959234, 0.0 ], [ 636575.968234330997802, 5191799.201110140420496, 0.0 ], [ 636587.336467979475856, 5191732.403952897526324, 0.0 ], [ 636609.931990684126504, 5191679.104069946333766, 0.0 ], [ 636611.720202547614463, 5191679.015841402113438, 0.0 ], [ 636633.302998451748863, 5191686.957893759943545, 0.0 ], [ 636645.960261774831451, 5191691.314197680912912, 0.0 ], [ 636659.816943170619197, 5191688.240201717242599, 0.0 ], [ 636674.090090821031481, 5191682.847451723180711, 0.0 ], [ 636681.236505025066435, 5191676.636381747201085, 0.0 ], [ 636689.632061493117362, 5191664.775834790430963, 0.0 ], [ 636695.320998039096594, 5191646.729533837176859, 0.0 ], [ 636695.915175056783482, 5191636.732105731964111, 0.0 ], [ 636705.643869275343604, 5191626.561202881857753, 0.0 ], [ 636705.006738611846231, 5191622.693526183255017, 0.0 ], [ 636694.720491835614666, 5191617.742636005394161, 0.0 ], [ 636695.644721222808585, 5191606.330894647166133, 0.0 ], [ 636694.195766872726381, 5191601.398459484800696, 0.0 ], [ 636698.453352709067985, 5191586.19664114061743, 0.0 ], [ 636692.97419264994096, 5191586.044372911565006, 0.0 ], [ 636690.151429554913193, 5191571.898000017739832, 0.0 ], [ 636703.409328580717556, 5191542.989735794253647, 0.0 ], [ 636713.703040165943094, 5191542.529251432977617, 0.0 ], [ 636721.424947830964811, 5191539.046850650571287, 0.0 ], [ 636722.469974898034707, 5191532.111959673464298, 0.0 ], [ 636729.219337082700804, 5191531.191914702765644, 0.0 ], [ 636729.585452466271818, 5191523.782481414265931, 0.0 ], [ 636738.186318821040913, 5191521.653001746162772, 0.0 ], [ 636744.296661304077134, 5191512.099451269954443, 0.0 ], [ 636746.571933962055482, 5191503.031603726558387, 0.0 ], [ 636742.072259700973518, 5191477.824144347570837, 0.0 ], [ 636734.88893654383719, 5191452.838003146462142, 0.0 ], [ 636733.62015330477152, 5191439.729012032039464, 0.0 ], [ 636742.10924211028032, 5191429.481001012958586, 0.0 ], [ 636741.655189480050467, 5191421.083654087036848, 0.0 ], [ 636754.440547356614843, 5191414.684581501409411, 0.0 ], [ 636745.801260901615024, 5191404.384985914453864, 0.0 ], [ 636738.018980388180353, 5191399.899709137156606, 0.0 ], [ 636733.305433387169614, 5191385.964122088626027, 0.0 ], [ 636730.882587300962768, 5191368.632657999172807, 0.0 ], [ 636730.601509758387692, 5191356.125458401627839, 0.0 ], [ 636732.912462086416781, 5191343.668352581560612, 0.0 ], [ 636731.582738506025635, 5191334.844130328856409, 0.0 ], [ 636737.813587976852432, 5191327.081553316675127, 0.0 ], [ 636737.987108037341386, 5191315.596025258302689, 0.0 ], [ 636732.99770093720872, 5191305.88154802378267, 0.0 ], [ 636724.765331750852056, 5191295.116891901008785, 0.0 ], [ 636726.30225292337127, 5191281.607671473175287, 0.0 ], [ 636714.597346616443247, 5191275.699694867245853, 0.0 ], [ 636720.554244408966042, 5191255.950996692292392, 0.0 ], [ 636725.925231045926921, 5191247.478811494074762, 0.0 ], [ 636731.503170950221829, 5191234.367369778454304, 0.0 ], [ 636736.5350664970465, 5191220.202669897116721, 0.0 ], [ 636737.523792179301381, 5191200.771399711258709, 0.0 ], [ 636738.177666473318823, 5191190.026024298742414, 0.0 ], [ 636747.461103120935149, 5191198.200652790255845, 0.0 ], [ 636750.005194589262828, 5191203.636066826060414, 0.0 ], [ 636754.492169254925102, 5191206.599864801391959, 0.0 ], [ 636758.489519318914972, 5191214.09275303222239, 0.0 ], [ 636759.635382380685769, 5191219.474646116606891, 0.0 ], [ 636766.15611954999622, 5191224.123028882779181, 0.0 ], [ 636779.952104052528739, 5191237.557591025717556, 0.0 ], [ 636792.077581320190802, 5191252.201173354871571, 0.0 ], [ 636791.749442704720423, 5191247.24570994079113, 0.0 ], [ 636801.588849881896749, 5191247.414840646088123, 0.0 ], [ 636798.729686348699033, 5191244.382323680445552, 0.0 ], [ 636797.828280737856403, 5191242.928999033756554, 0.0 ], [ 636795.922779267770238, 5191239.856733702123165, 0.0 ], [ 636793.590501854661852, 5191236.64620594214648, 0.0 ], [ 636790.150325756170787, 5191231.910605414770544, 0.0 ], [ 636785.331451602396555, 5191225.277102616615593, 0.0 ], [ 636779.297974671470001, 5191218.714462955482304, 0.0 ], [ 636773.955657420679927, 5191212.903584064915776, 0.0 ], [ 636769.230315537191927, 5191207.763819878920913, 0.0 ], [ 636767.271344223292544, 5191205.080942492000759, 0.0 ], [ 636760.221744837122969, 5191195.426230088807642, 0.0 ], [ 636758.944702247157693, 5191193.50384527258575, 0.0 ], [ 636753.597472618799657, 5191185.454509894363582, 0.0 ], [ 636749.730570525513031, 5191178.857812186703086, 0.0 ], [ 636745.864806020166725, 5191172.713085081428289, 0.0 ], [ 636728.569340941379778, 5191149.695289180614054, 0.0 ], [ 636712.061416711425409, 5191132.714228898286819, 0.0 ], [ 636704.319641420501284, 5191125.147634017281234, 0.0 ], [ 636699.503064915072173, 5191119.79589912109077, 0.0 ], [ 636683.097892213845626, 5191101.568005055189133, 0.0 ], [ 636681.04098484350834, 5191099.282551789656281, 0.0 ], [ 636675.718616977217607, 5191091.5140634868294, 0.0 ], [ 636664.173114588600583, 5191074.099070494994521, 0.0 ], [ 636655.780166958924383, 5191060.039351812563837, 0.0 ], [ 636648.075998006388545, 5191040.91908336058259, 0.0 ], [ 636639.325857240241021, 5191025.97083367779851, 0.0 ], [ 636635.986735454876907, 5191022.963657770305872, 0.0 ], [ 636635.027952263364568, 5191020.044942085631192, 0.0 ], [ 636626.471521579776891, 5191025.438035453669727, 0.0 ], [ 636632.721301425248384, 5191042.528637181036174, 0.0 ], [ 636632.547730514663272, 5191044.540423557162285, 0.0 ], [ 636617.847574389423244, 5191013.044821345247328, 0.0 ], [ 636611.934897711500525, 5190989.947153564542532, 0.0 ], [ 636604.327561605256051, 5190975.314656808041036, 0.0 ], [ 636600.832965762005188, 5190936.265498840250075, 0.0 ], [ 636603.37841454311274, 5190921.306236096657813, 0.0 ], [ 636597.470158997923136, 5190904.212717398069799, 0.0 ], [ 636603.052352701546624, 5190894.804171079769731, 0.0 ], [ 636592.646354521857575, 5190877.135565906763077, 0.0 ], [ 636582.525109227513894, 5190888.460225345566869, 0.0 ], [ 636573.569574424531311, 5190887.310538919642568, 0.0 ], [ 636465.579206101363525, 5190772.979220758192241, 0.0 ], [ 636409.216236542211846, 5190748.026733942329884, 0.0 ], [ 636372.417296773055568, 5190723.40238119661808, 0.0 ], [ 636362.98463581665419, 5190711.739698027260602, 0.0 ], [ 636330.70460557017941, 5190702.690928348340094, 0.0 ], [ 636302.292650240473449, 5190684.71309787966311, 0.0 ], [ 636248.053676994866692, 5190668.792537757195532, 0.0 ], [ 636203.929787380620837, 5190642.037589092738926, 0.0 ], [ 636130.998990624211729, 5190616.803262278437614, 0.0 ], [ 636112.594561237609014, 5190604.490986795164645, 0.0 ], [ 636078.9753027043771, 5190593.914815742522478, 0.0 ], [ 636028.594482749234885, 5190569.064993820153177, 0.0 ], [ 635959.130786345805973, 5190554.880278273485601, 0.0 ], [ 635932.924146198667586, 5190529.93443926051259, 0.0 ], [ 635925.528663834789768, 5190511.962205627933145, 0.0 ], [ 635906.900979732745327, 5190505.491170052438974, 0.0 ], [ 635893.265671410481445, 5190493.896016040816903, 0.0 ], [ 635894.341832192847505, 5190488.0711555108428, 0.0 ], [ 635891.551634040195495, 5190481.097995513118804, 0.0 ], [ 635885.928432426531799, 5190477.541452245786786, 0.0 ], [ 635876.751569486223161, 5190473.916424789465964, 0.0 ], [ 635868.669371739728376, 5190472.979887674562633, 0.0 ], [ 635858.908474557916634, 5190464.679445494897664, 0.0 ], [ 635840.458421717048623, 5190431.372251017950475, 0.0 ], [ 635823.201339160790667, 5190417.582885567098856, 0.0 ], [ 635810.735956211574376, 5190396.877096883952618, 0.0 ], [ 635802.127812256803736, 5190392.729535227641463, 0.0 ], [ 635772.690125230350532, 5190400.726830667816103, 0.0 ], [ 635761.485607741982676, 5190410.026850107125938, 0.0 ], [ 635742.223225482623093, 5190416.697031618095934, 0.0 ], [ 635717.016848948434927, 5190416.270044421777129, 0.0 ], [ 635685.248437171801925, 5190396.730170699767768, 0.0 ], [ 635671.68855557020288, 5190372.508656659163535, 0.0 ], [ 635633.358120741555467, 5190333.855888737365603, 0.0 ], [ 635609.956492808531038, 5190280.46471428964287, 0.0 ], [ 635601.30128123331815, 5190271.323159381747246, 0.0 ], [ 635584.404036491061561, 5190226.53699404373765, 0.0 ], [ 635553.550154838245362, 5190183.52220194786787, 0.0 ], [ 635492.677570522064343, 5190141.492781396955252, 0.0 ], [ 635431.332490398199297, 5190108.4437091993168, 0.0 ], [ 635432.35541475948412, 5190100.97105944622308, 0.0 ], [ 635446.264965358423069, 5190094.205714383162558, 0.0 ], [ 635489.663630462135188, 5190090.441268146969378, 0.0 ], [ 635498.071043712086976, 5190062.094228622503579, 0.0 ], [ 635487.750237861881033, 5190042.425211387686431, 0.0 ], [ 635474.282659810036421, 5190034.696050939150155, 0.0 ], [ 635406.817425638437271, 5189968.049564627930522, 0.0 ], [ 635372.770669182995334, 5189925.475689576007426, 0.0 ], [ 635374.278133725048974, 5189923.330873904749751, 0.0 ], [ 635373.733482458628714, 5189907.506404518149793, 0.0 ], [ 635377.490862123435363, 5189907.884326889179647, 0.0 ], [ 635383.815006225486286, 5189901.630265884101391, 0.0 ], [ 635389.5393367477227, 5189901.182711838744581, 0.0 ], [ 635394.912911265855655, 5189902.132129604928195, 0.0 ], [ 635395.153298635734245, 5189895.880522202700377, 0.0 ], [ 635383.23708875849843, 5189890.698973287828267, 0.0 ], [ 635375.340251277317293, 5189893.414442631416023, 0.0 ], [ 635364.225531022646464, 5189896.721109830774367, 0.0 ], [ 635364.345338558079675, 5189905.309726096689701, 0.0 ], [ 635353.965044852229767, 5189907.29594231583178, 0.0 ], [ 635351.987545138807036, 5189903.277487315237522, 0.0 ], [ 635340.784376443829387, 5189898.149079328402877, 0.0 ], [ 635338.415568805299699, 5189900.238072975538671, 0.0 ], [ 635339.290627651847899, 5189890.414792828261852, 0.0 ], [ 635373.849618499400094, 5189844.514018819667399, 0.0 ], [ 635377.462604737025686, 5189833.801171567291021, 0.0 ], [ 635378.949206762132235, 5189834.415749930776656, 0.0 ], [ 635389.81513968273066, 5189828.982956445775926, 0.0 ], [ 635388.074566456023604, 5189822.675645209848881, 0.0 ], [ 635380.729885471984744, 5189824.113373145461082, 0.0 ], [ 635385.418436105479486, 5189810.211372805759311, 0.0 ], [ 635376.599619767395779, 5189773.569023557938635, 0.0 ], [ 635366.652987954672426, 5189757.851964088156819, 0.0 ], [ 635369.22742579318583, 5189756.813109282404184, 0.0 ], [ 635390.074817203683779, 5189757.78787094540894, 0.0 ], [ 635382.665045018889941, 5189742.871493138372898, 0.0 ], [ 635393.76607829076238, 5189737.960677808150649, 0.0 ], [ 635407.614591371035203, 5189736.421448316425085, 0.0 ], [ 635411.199635911500081, 5189734.058574070222676, 0.0 ], [ 635398.863386140670627, 5189728.116902662441134, 0.0 ], [ 635381.072377289645374, 5189727.814128817990422, 0.0 ], [ 635371.660167709458619, 5189733.377676349133253, 0.0 ], [ 635357.848609840497375, 5189732.76925500575453, 0.0 ], [ 635368.705398582504131, 5189713.44187443330884, 0.0 ], [ 635356.641240764642134, 5189672.747253935784101, 0.0 ], [ 635351.200712388381362, 5189662.153807568363845, 0.0 ], [ 635295.660352398059331, 5189614.715499434620142, 0.0 ], [ 635265.723887717234902, 5189596.932052659802139, 0.0 ], [ 635269.093338809907436, 5189596.99381896853447, 0.0 ], [ 635270.485709905973636, 5189592.149743962101638, 0.0 ], [ 635260.207840333692729, 5189589.410967011004686, 0.0 ], [ 635243.021399237099104, 5189580.495912718586624, 0.0 ], [ 635233.400759561453015, 5189573.805512581020594, 0.0 ], [ 635230.640336792683229, 5189576.091034911572933, 0.0 ], [ 635216.824548477306962, 5189567.883910559117794, 0.0 ], [ 635219.221786897396669, 5189562.738764178939164, 0.0 ], [ 635226.125810623518191, 5189556.60655113030225, 0.0 ], [ 635221.879634412005544, 5189552.516504975035787, 0.0 ], [ 635216.591359311365522, 5189558.130215546116233, 0.0 ], [ 635216.02746246708557, 5189557.009683297947049, 0.0 ], [ 635212.436121303471737, 5189558.567471557296813, 0.0 ], [ 635203.375208443612792, 5189559.100722142495215, 0.0 ], [ 635191.172517295111902, 5189544.445868043228984, 0.0 ], [ 635104.51282348902896, 5189494.977354867383838, 0.0 ], [ 634919.659406866179779, 5189436.327270693145692, 0.0 ], [ 634876.04408841393888, 5189408.087057093158364, 0.0 ], [ 634871.116895251674578, 5189394.007461635395885, 0.0 ], [ 634894.64752855617553, 5189383.907000315375626, 0.0 ], [ 635030.587720382609405, 5189340.74217963218689, 0.0 ], [ 635091.295799072133377, 5189330.441077058203518, 0.0 ], [ 635093.634798664948903, 5189333.413860104978085, 0.0 ], [ 635100.72779925307259, 5189340.445225088857114, 0.0 ], [ 635101.385709136724472, 5189347.559065500274301, 0.0 ], [ 635102.992947601014748, 5189354.47307694144547, 0.0 ], [ 635113.588410078315064, 5189360.291097563691437, 0.0 ], [ 635128.375856483005919, 5189353.28809464443475, 0.0 ], [ 635137.181920194532722, 5189350.025123559869826, 0.0 ], [ 635144.334679997875355, 5189352.546728923916817, 0.0 ], [ 635145.938340417924337, 5189347.567272142507136, 0.0 ], [ 635150.378376017208211, 5189338.914264868013561, 0.0 ], [ 635158.631053092423826, 5189343.374483417719603, 0.0 ], [ 635163.85866253473796, 5189338.093714877031744, 0.0 ], [ 635170.843018908868544, 5189332.528846024535596, 0.0 ], [ 635179.862644655629992, 5189326.060664399527013, 0.0 ], [ 635189.102538976585492, 5189321.232036015950143, 0.0 ], [ 635194.018072111648507, 5189320.52738253865391, 0.0 ], [ 635247.669464117498137, 5189325.943992814049125, 0.0 ], [ 635379.803980209049769, 5189316.701014151796699, 0.0 ], [ 635379.957072578603402, 5189320.225203456357121, 0.0 ], [ 635372.937966323224828, 5189325.541499326005578, 0.0 ], [ 635358.840465007117018, 5189327.019499979913235, 0.0 ], [ 635352.282110247761011, 5189345.510965256951749, 0.0 ], [ 635339.441326519008726, 5189352.35210127197206, 0.0 ], [ 635332.502928060013801, 5189357.801771659404039, 0.0 ], [ 635332.787362487637438, 5189362.475384700112045, 0.0 ], [ 635348.326813601423055, 5189366.57662427611649, 0.0 ], [ 635346.124115377780981, 5189373.910778754390776, 0.0 ], [ 635338.609176321770065, 5189378.74664692953229, 0.0 ], [ 635327.889628460165113, 5189373.932459948584437, 0.0 ], [ 635324.073903185897507, 5189370.754682356491685, 0.0 ], [ 635313.036994019057602, 5189371.956798015162349, 0.0 ], [ 635310.439514480531216, 5189380.159185212105513, 0.0 ], [ 635324.14211059641093, 5189392.895744190551341, 0.0 ], [ 635322.144347783760168, 5189402.053280300460756, 0.0 ], [ 635325.554508385481313, 5189406.793109851889312, 0.0 ], [ 635333.918799163075164, 5189407.339417691342533, 0.0 ], [ 635340.749443722655997, 5189404.284823594614863, 0.0 ], [ 635348.847544939490035, 5189390.329337516799569, 0.0 ], [ 635356.375984871643595, 5189382.82082399353385, 0.0 ], [ 635356.827096132095903, 5189373.292961207218468, 0.0 ], [ 635363.477386539569125, 5189371.199235870502889, 0.0 ], [ 635368.899442962370813, 5189365.010821637697518, 0.0 ], [ 635375.835367898107506, 5189358.120195959694684, 0.0 ], [ 635393.247399426880293, 5189351.545838994905353, 0.0 ], [ 635401.327341925469227, 5189351.525345818139613, 0.0 ], [ 635405.580626653973013, 5189360.839271244592965, 0.0 ], [ 635412.250944980653003, 5189361.68274690117687, 0.0 ], [ 635419.651774757541716, 5189353.798082781024277, 0.0 ], [ 635438.535830401233397, 5189353.269494228996336, 0.0 ], [ 635448.009135420084931, 5189359.864378744736314, 0.0 ], [ 635457.460064822458662, 5189359.665241999551654, 0.0 ], [ 635466.132986111100763, 5189353.005162776447833, 0.0 ], [ 635491.109322289470583, 5189365.429606252349913, 0.0 ], [ 635493.310424174182117, 5189361.833243531174958, 0.0 ], [ 635526.123172787716612, 5189361.224675822071731, 0.0 ], [ 635530.95893564238213, 5189346.299717918038368, 0.0 ], [ 635545.501891399151646, 5189323.108328714966774, 0.0 ], [ 635557.028320592595264, 5189328.867220283485949, 0.0 ], [ 635574.340956142637879, 5189320.553244081325829, 0.0 ], [ 635589.191627839580178, 5189322.234895824454725, 0.0 ], [ 635605.62467964773532, 5189344.631463947705925, 0.0 ], [ 635609.806917967856862, 5189349.365420286543667, 0.0 ], [ 635617.614992683054879, 5189358.68832615762949, 0.0 ], [ 635636.277038623113185, 5189348.827044785022736, 0.0 ], [ 635642.398186352453195, 5189343.819393143057823, 0.0 ], [ 635656.526708695688285, 5189329.847230097278953, 0.0 ], [ 635680.04952264262829, 5189301.945121954195201, 0.0 ], [ 635693.991512661101297, 5189275.9336690120399, 0.0 ], [ 635703.141909318044782, 5189247.090771910734475, 0.0 ], [ 635709.255827596760355, 5189172.744413712061942, 0.0 ], [ 635701.931842136895284, 5189116.646497474983335, 0.0 ], [ 635695.349301752634346, 5189081.137415870092809, 0.0 ] ], [ [ 633332.69812343083322, 5191559.399826445616782, 0.0 ], [ 633384.758272023871541, 5191483.303563359193504, 0.0 ], [ 633417.289998336695135, 5191454.861139987595379, 0.0 ], [ 633449.942159389611334, 5191445.422940220683813, 0.0 ], [ 633458.992326586740091, 5191435.07633657194674, 0.0 ], [ 633481.462927824351937, 5191427.46520537789911, 0.0 ], [ 633486.754457080853172, 5191416.55238775536418, 0.0 ], [ 633557.519967637956142, 5191413.76331960875541, 0.0 ], [ 633616.079980871174484, 5191430.758705541491508, 0.0 ], [ 633675.916746663860977, 5191477.269481823779643, 0.0 ], [ 633730.232491028029472, 5191584.683886950835586, 0.0 ], [ 633738.871315584285185, 5191594.325685158371925, 0.0 ], [ 633766.115000313729979, 5191658.280808808282018, 0.0 ], [ 633816.424820053740405, 5191727.630736003629863, 0.0 ], [ 633850.378244773251936, 5191753.702163849025965, 0.0 ], [ 633928.395216460805386, 5191793.0296152215451, 0.0 ], [ 633948.878850651904941, 5191808.379618643783033, 0.0 ], [ 633969.454621761571616, 5191840.221829925663769, 0.0 ], [ 633989.134032230358571, 5191898.050579604692757, 0.0 ], [ 633990.734905899967998, 5191920.064889216795564, 0.0 ], [ 633977.502972415997647, 5192006.331564522348344, 0.0 ], [ 633973.66218393901363, 5192016.261417033150792, 0.0 ], [ 633959.57865860091988, 5192053.514762628823519, 0.0 ], [ 633935.683356610359624, 5192088.607040216214955, 0.0 ], [ 633928.19667706056498, 5192092.978710353374481, 0.0 ], [ 633930.962957783020101, 5192106.521523754112422, 0.0 ], [ 633920.998038770630956, 5192140.342748682945967, 0.0 ], [ 633903.006032900884748, 5192177.028032218106091, 0.0 ], [ 633890.614110709866509, 5192251.306791711598635, 0.0 ], [ 633884.360923053696752, 5192280.690263476222754, 0.0 ], [ 633887.096451291115955, 5192288.739010453224182, 0.0 ], [ 633899.401831239345483, 5192282.454814068973064, 0.0 ], [ 633910.528910611872561, 5192262.647180748172104, 0.0 ], [ 633964.752376397605985, 5192190.079511390067637, 0.0 ], [ 634006.628977498970926, 5192099.309046504087746, 0.0 ], [ 634030.857909995829687, 5192047.229402170516551, 0.0 ], [ 634043.473310273257084, 5192036.946264108642936, 0.0 ], [ 634079.93866241176147, 5192007.080664419569075, 0.0 ], [ 634142.218828826677054, 5191982.473207851871848, 0.0 ], [ 634153.810855833347887, 5191986.837423499673605, 0.0 ], [ 634180.621220816741697, 5191986.804155920632184, 0.0 ], [ 634201.045814792392775, 5191994.148016855120659, 0.0 ], [ 634281.730964881950058, 5192031.01611699629575, 0.0 ], [ 634307.518361293827184, 5192038.455378199927509, 0.0 ], [ 634367.877263978705741, 5192083.981540933251381, 0.0 ], [ 634418.537409374606796, 5192122.334667291492224, 0.0 ], [ 634459.586991489864886, 5192169.526613163761795, 0.0 ], [ 634486.002358364290558, 5192188.981572826392949, 0.0 ], [ 634495.314454472973011, 5192208.628254784271121, 0.0 ], [ 634502.643436872516759, 5192274.742018365301192, 0.0 ], [ 634497.423266736790538, 5192296.653141364455223, 0.0 ], [ 634469.95894185337238, 5192358.179831770248711, 0.0 ], [ 634445.000669326051138, 5192400.744293284602463, 0.0 ], [ 634417.346790643641725, 5192435.260481597855687, 0.0 ], [ 634374.692447755951434, 5192473.526361758820713, 0.0 ], [ 634351.157841057283804, 5192483.125988089479506, 0.0 ], [ 634310.447612973861396, 5192489.934405284002423, 0.0 ], [ 634247.668013789574616, 5192484.365514601580799, 0.0 ], [ 634225.178812413825653, 5192489.474835909903049, 0.0 ], [ 634150.605005343793891, 5192483.70199466869235, 0.0 ], [ 634086.694048171979375, 5192469.613503132015467, 0.0 ], [ 634044.852457964443602, 5192467.902305757626891, 0.0 ], [ 634016.910540246870369, 5192459.426001188345253, 0.0 ], [ 633884.90163336682599, 5192445.677448773756623, 0.0 ], [ 633659.235615379060619, 5192377.340171228162944, 0.0 ], [ 633590.917516888934188, 5192345.175553767941892, 0.0 ], [ 633569.422935145441443, 5192340.310179768130183, 0.0 ], [ 633476.860335549805313, 5192289.237185187637806, 0.0 ], [ 633381.967261548154056, 5192210.637274933047593, 0.0 ], [ 633318.740520562976599, 5192135.065549042075872, 0.0 ], [ 633255.368409759365022, 5192038.507966795936227, 0.0 ], [ 633238.080954184755683, 5192019.21419252641499, 0.0 ], [ 633224.932929398841225, 5191974.994212588295341, 0.0 ], [ 633211.737883286434226, 5191925.780309078283608, 0.0 ], [ 633207.973809889750555, 5191840.72741477843374, 0.0 ], [ 633202.45360269327648, 5191816.633939379826188, 0.0 ], [ 633204.409941936959513, 5191788.178728788159788, 0.0 ], [ 633210.724619949935004, 5191769.783416096121073, 0.0 ], [ 633277.961495673051104, 5191635.453350712545216, 0.0 ], [ 633307.63088743807748, 5191580.468276672065258, 0.0 ], [ 633332.69812343083322, 5191559.399826445616782, 0.0 ] ] ] } }
]
}
